0 CLOUDSAT
1 29107U 06016A   16017.14494802  .00000243  00000-0  63992-4 0  9991
2 29107  98.2191 322.5441 0001076 120.3916 239.7388 14.57110113517139